[{"OBJECT_NAME":"METOP-SGA1","OBJECT_ID":"2025-172A","EPOCH":"2026-03-09T18:22:16.359168","MEAN_MOTION":14.21429454,"ECCENTRICITY":0.0001154,"INCLINATION":98.6757,"RA_OF_ASC_NODE":130.2282,"ARG_OF_PERICENTER":80.674,"MEAN_ANOMALY":279.4568,"EPHEMERIS_TYPE":0,"CLASSIFICATION_TYPE":"U","NORAD_CAT_ID":65159,"ELEMENT_SET_NO":999,"REV_AT_EPOCH":2966,"BSTAR":3.7676115e-5,"MEAN_MOTION_DOT":3.9e-7,"MEAN_MOTION_DDOT":0},{"OBJECT_NAME":"CZ-6A DEB","OBJECT_ID":"2024-140VP","EPOCH":"2026-03-09T13:54:52.853760","MEAN_MOTION":14.28307263,"ECCENTRICITY":0.0077827,"INCLINATION":89.1192,"RA_OF_ASC_NODE":293.5106,"ARG_OF_PERICENTER":196.0292,"MEAN_ANOMALY":163.844,"EPHEMERIS_TYPE":0,"CLASSIFICATION_TYPE":"U","NORAD_CAT_ID":61350,"ELEMENT_SET_NO":999,"REV_AT_EPOCH":7871,"BSTAR":0.0012676,"MEAN_MOTION_DOT":3.28e-5,"MEAN_MOTION_DDOT":0}]
